{"type": "FeatureCollection", "features": [ {"type": "Feature", "properties": {"norad_id": 37216, "name": "COSMO-SKYMED 4", "group": "resource", "lat": 79.33362110314125, "lon": 48.69162337682455, "alt_km": 614.1957949741536, "timestamp": "2025-12-26T05:31:12.156673+00:00", "meta": {"OBJECT_NAME": "COSMO-SKYMED 4", "OBJECT_ID": "2010-060A", "EPOCH": "2025-12-25T22:36:08.209152", "MEAN_MOTION": 14.82163185, "ECCENTRICITY": 0.00014073, "INCLINATION": 97.8806, "RA_OF_ASC_NODE": 181.0662, "ARG_OF_PERICENTER": 81.7921, "MEAN_ANOMALY": 278.3452, "EPHEMERIS_TYPE": 0, "CLASSIFICATION_TYPE": "U", "NORAD_CAT_ID": 37216, "ELEMENT_SET_NO": 999, "REV_AT_EPOCH": 81890, "BSTAR": 0.00018194851, "MEAN_MOTION_DOT": 1.397e-05, "MEAN_MOTION_DDOT": 0}, "tle": {"line1": "1 37216U 10060A   25359.94176168  .00001397  00000+0  18195-3 0  9998", "line2": "2 37216  97.8806 181.0662 0001407  81.7921 278.3452 14.82163185818909"}}, "geometry": {"type": "Point", "coordinates": [48.69162337682455, 79.33362110314125]}}, {"type": "Feature", "properties": {"norad_id": 37387, "name": "RESOURCESAT-2", "group": "resource", "lat": 6.189730354225926, "lon": 62.75908015546702, "alt_km": 817.8522051474956, "timestamp": "2025-12-26T05:31:12.156684+00:00", "meta": {"OBJECT_NAME": "RESOURCESAT-2", "OBJECT_ID": "2011-015A", "EPOCH": "2025-12-25T21:02:41.162784", "MEAN_MOTION": 14.21602242, "ECCENTRICITY": 0.00057777, "INCLINATION": 98.7859, "RA_OF_ASC_NODE": 63.3687, "ARG_OF_PERICENTER": 6.506, "MEAN_ANOMALY": 353.6191, "EPHEMERIS_TYPE": 0, "CLASSIFICATION_TYPE": "U", "NORAD_CAT_ID": 37387, "ELEMENT_SET_NO": 999, "REV_AT_EPOCH": 76155, "BSTAR": 7.8419274e-05, "MEAN_MOTION_DOT": 1.27e-06, "MEAN_MOTION_DDOT": 0}, "tle": {"line1": "1 37387U 11015A   25359.87686531  .00000127  00000+0  78419-4 0  9996", "line2": "2 37387  98.7859  63.3687 0005777   6.5060 353.6191 14.21602242761558"}}, "geometry": {"type": "Point", "coordinates": [62.75908015546702, 6.189730354225926]}}, {"type": "Feature", "properties": {"norad_id": 37781, "name": "HAIYANG-2A", "group": "resource", "lat": 38.59181886126401, "lon": -171.4982514902613, "alt_km": 964.7292054258678, "timestamp": "2025-12-26T05:31:12.156694+00:00", "meta": {"OBJECT_NAME": "HAIYANG-2A", "OBJECT_ID": "2011-043A", "EPOCH": "2025-12-25T23:36:55.836576", "MEAN_MOTION": 13.78835846, "ECCENTRICITY": 0.00015602, "INCLINATION": 99.338, "RA_OF_ASC_NODE": 0.7142, "ARG_OF_PERICENTER": 66.3452, "MEAN_ANOMALY": 293.7863, "EPHEMERIS_TYPE": 0, "CLASSIFICATION_TYPE": "U", "NORAD_CAT_ID": 37781, "ELEMENT_SET_NO": 999, "REV_AT_EPOCH": 72281, "BSTAR": -0.00016284573, "MEAN_MOTION_DOT": -2.1e-06, "MEAN_MOTION_DDOT": 0}, "tle": {"line1": "1 37781U 11043A   25359.98397959 -.00000210  00000+0 -16285-3 0  9997", "line2": "2 37781  99.3380   0.7142 0001560  66.3452 293.7863 13.78835846722813"}}, "geometry": {"type": "Point", "coordinates": [-171.4982514902613, 38.59181886126401]}}, {"type": "Feature", "properties": {"norad_id": 37791, "name": "RASAT", "group": "resource", "lat": -74.18397817934455, "lon": -120.74517354683643, "alt_km": 684.1654523032312, "timestamp": "2025-12-26T05:31:12.156705+00:00", "meta": {"OBJECT_NAME": "RASAT", "OBJECT_ID": "2011-044D", "EPOCH": "2025-12-25T22:18:53.793792", "MEAN_MOTION": 14.67927688, "ECCENTRICITY": 0.00212755, "INCLINATION": 98.064, "RA_OF_ASC_NODE": 88.9913, "ARG_OF_PERICENTER": 25.0384, "MEAN_ANOMALY": 85.9413, "EPHEMERIS_TYPE": 0, "CLASSIFICATION_TYPE": "U", "NORAD_CAT_ID": 37791, "ELEMENT_SET_NO": 999, "REV_AT_EPOCH": 76776, "BSTAR": 0.00014774059, "MEAN_MOTION_DOT": 7.99e-06, "MEAN_MOTION_DDOT": 0}, "tle": {"line1": "1 37791U 11044D   25359.92978928  .00000799  00000+0  14774-3 0  9995", "line2": "2 37791  98.0640  88.9913 0021275  25.0384  85.9413 14.67927688767764"}}, "geometry": {"type": "Point", "coordinates": [-120.74517354683643, -74.18397817934455]}}, {"type": "Feature", "properties": {"norad_id": 37841, "name": "SRMSAT", "group": "resource", "lat": 4.309441214454114, "lon": 38.28498602463702, "alt_km": 851.00725733944, "timestamp": "2025-12-26T05:31:12.156716+00:00", "meta": {"OBJECT_NAME": "SRMSAT", "OBJECT_ID": "2011-058D", "EPOCH": "2025-12-25T10:55:52.472352", "MEAN_MOTION": 14.11515651, "ECCENTRICITY": 0.0011992, "INCLINATION": 19.9731, "RA_OF_ASC_NODE": 30.9947, "ARG_OF_PERICENTER": 92.4725, "MEAN_ANOMALY": 296.1471, "EPHEMERIS_TYPE": 0, "CLASSIFICATION_TYPE": "U", "NORAD_CAT_ID": 37841, "ELEMENT_SET_NO": 999, "REV_AT_EPOCH": 73324, "BSTAR": 9.1991e-05, "MEAN_MOTION_DOT": 4.34e-06, "MEAN_MOTION_DDOT": 0}, "tle": {"line1": "1 37841U 11058D   25359.45546843  .00000434  00000+0  91991-4 0  9994", "line2": "2 37841  19.9731  30.9947 0011992  92.4725 296.1471 14.11515651733247"}}, "geometry": {"type": "Point", "coordinates": [38.28498602463702, 4.309441214454114]}}, {"type": "Feature", "properties": {"norad_id": 38012, "name": "PLEIADES 1A", "group": "resource", "lat": -41.32006808605064, "lon": 80.05469348414769, "alt_km": 704.7176929111265, "timestamp": "2025-12-26T05:31:12.156726+00:00", "meta": {"OBJECT_NAME": "PLEIADES 1A", "OBJECT_ID": "2011-076F", "EPOCH": "2025-12-25T23:29:09.401856", "MEAN_MOTION": 14.58572503, "ECCENTRICITY": 0.00010818, "INCLINATION": 98.1805, "RA_OF_ASC_NODE": 72.5419, "ARG_OF_PERICENTER": 77.1574, "MEAN_ANOMALY": 1.7154, "EPHEMERIS_TYPE": 0, "CLASSIFICATION_TYPE": "U", "NORAD_CAT_ID": 38012, "ELEMENT_SET_NO": 999, "REV_AT_EPOCH": 74674, "BSTAR": 5.9825974e-05, "MEAN_MOTION_DOT": 2.33e-06, "MEAN_MOTION_DDOT": 0}, "tle": {"line1": "1 38012U 11076F   25359.97858104  .00000233  00000+0  59826-4 0  9996", "line2": "2 38012  98.1805  72.5419 0001081  77.1574   1.7154 14.58572503746742"}}, "geometry": {"type": "Point", "coordinates": [80.05469348414769, -41.32006808605064]}}, {"type": "Feature", "properties": {"norad_id": 38038, "name": "ZIYUAN 1-02C (ZY 1-02C)", "group": "resource", "lat": -49.58421217550669, "lon": 76.02469475437627, "alt_km": 776.7227261027965, "timestamp": "2025-12-26T05:31:12.156736+00:00", "meta": {"OBJECT_NAME": "ZIYUAN 1-02C (ZY 1-02C)", "OBJECT_ID": "2011-079A", "EPOCH": "2025-12-25T23:38:54.170016", "MEAN_MOTION": 14.38025976, "ECCENTRICITY": 0.00075632, "INCLINATION": 98.4313, "RA_OF_ASC_NODE": 65.7537, "ARG_OF_PERICENTER": 103.9491, "MEAN_ANOMALY": 20.0364, "EPHEMERIS_TYPE": 0, "CLASSIFICATION_TYPE": "U", "NORAD_CAT_ID": 38038, "ELEMENT_SET_NO": 999, "REV_AT_EPOCH": 73431, "BSTAR": 0.0001368518, "MEAN_MOTION_DOT": 3.71e-06, "MEAN_MOTION_DDOT": 0}, "tle": {"line1": "1 38038U 11079A   25359.98534919  .00000371  00000+0  13685-3 0  9998", "line2": "2 38038  98.4313  65.7537 0007563 103.9491  20.0364 14.38025976734311"}}, "geometry": {"type": "Point", "coordinates": [76.02469475437627, -49.58421217550669]}}, {"type": "Feature", "properties": {"norad_id": 38338, "name": "ARIRANG-3 (KOMPSAT-3)", "group": "resource", "lat": 8.655880222244335, "lon": -46.35631426027621, "alt_km": 688.7381219432336, "timestamp": "2025-12-26T05:31:12.156747+00:00", "meta": {"OBJECT_NAME": "ARIRANG-3 (KOMPSAT-3)", "OBJECT_ID": "2012-025B", "EPOCH": "2025-12-25T22:54:31.286592", "MEAN_MOTION": 14.61729459, "ECCENTRICITY": 0.00046783, "INCLINATION": 98.3341, "RA_OF_ASC_NODE": 314.6448, "ARG_OF_PERICENTER": 290.9099, "MEAN_ANOMALY": 69.16, "EPHEMERIS_TYPE": 0, "CLASSIFICATION_TYPE": "U", "NORAD_CAT_ID": 38338, "ELEMENT_SET_NO": 999, "REV_AT_EPOCH": 72603, "BSTAR": 0.00013047396, "MEAN_MOTION_DOT": 6.02e-06, "MEAN_MOTION_DDOT": 0}, "tle": {"line1": "1 38338U 12025B   25359.95452878  .00000602  00000+0  13047-3 0  9992", "line2": "2 38338  98.3341 314.6448 0004678 290.9099  69.1600 14.61729459726036"}}, "geometry": {"type": "Point", "coordinates": [-46.35631426027621, 8.655880222244335]}}, {"type": "Feature", "properties": {"norad_id": 38709, "name": "EXACTVIEW-1 (ADS-1B)", "group": "resource", "lat": 21.76126042419244, "lon": 105.29072753224496, "alt_km": 805.8324532191173, "timestamp": "2025-12-26T05:31:12.156757+00:00", "meta": {"OBJECT_NAME": "EXACTVIEW-1 (ADS-1B)", "OBJECT_ID": "2012-039C", "EPOCH": "2025-12-25T20:59:26.610720", "MEAN_MOTION": 14.24913142, "ECCENTRICITY": 0.00101081, "INCLINATION": 98.9638, "RA_OF_ASC_NODE": 108.5404, "ARG_OF_PERICENTER": 314.6853, "MEAN_ANOMALY": 45.3501, "EPHEMERIS_TYPE": 0, "CLASSIFICATION_TYPE": "U", "NORAD_CAT_ID": 38709, "ELEMENT_SET_NO": 999, "REV_AT_EPOCH": 69802, "BSTAR": 8.8694024e-05, "MEAN_MOTION_DOT": 1.61e-06, "MEAN_MOTION_DDOT": 0}, "tle": {"line1": "1 38709U 12039C   25359.87461355  .00000161  00000+0  88694-4 0  9991", "line2": "2 38709  98.9638 108.5404 0010108 314.6853  45.3501 14.24913142698028"}}, "geometry": {"type": "Point", "coordinates": [105.29072753224496, 21.76126042419244]}}, {"type": "Feature", "properties": {"norad_id": 38755, "name": "SPOT 6", "group": "resource", "lat": -60.46400304911884, "lon": -129.89571894890378, "alt_km": 705.8685099257054, "timestamp": "2025-12-26T05:31:12.156768+00:00", "meta": {"OBJECT_NAME": "SPOT 6", "OBJECT_ID": "2012-047A", "EPOCH": "2025-12-25T23:28:37.310304", "MEAN_MOTION": 14.58543606, "ECCENTRICITY": 0.00012369, "INCLINATION": 98.1551, "RA_OF_ASC_NODE": 64.5172, "ARG_OF_PERICENTER": 77.3995, "MEAN_ANOMALY": 282.7343, "EPHEMERIS_TYPE": 0, "CLASSIFICATION_TYPE": "U", "NORAD_CAT_ID": 38755, "ELEMENT_SET_NO": 999, "REV_AT_EPOCH": 70780, "BSTAR": 9.5800966e-05, "MEAN_MOTION_DOT": 4e-06, "MEAN_MOTION_DDOT": 0}, "tle": {"line1": "1 38755U 12047A   25359.97820961  .00000400  00000+0  95801-4 0  9998", "line2": "2 38755  98.1551  64.5172 0001236  77.3995 282.7343 14.58543606707809"}}, "geometry": {"type": "Point", "coordinates": [-129.89571894890378, -60.46400304911884]}}]}